{"type":"FeatureCollection","features":[{"type":"Feature","properties":{"Codice":"U_16","Gruppo":"Sede amministrativa/istituzionale","altezza":13.7,"osm_id":"rel/4779985","name":"Palazzo Galletti","quota":48.84622849593534,"tetto":86.09174413133248},"geometry":{"type":"Polygon","coordinates":[[[13.3694941,38.1170607],[13.3695733,38.1169996],[13.3696124,38.1169468],[13.3694797,38.1168784],[13.3694317,38.1168419],[13.3694067,38.1168623],[13.3693815,38.1168459],[13.3693437,38.1168745],[13.3693714,38.1168948],[13.3693221,38.1169332],[13.3694941,38.1170607]],[[13.3694492,38.1169063],[13.3695113,38.1169432],[13.3694719,38.1169841],[13.3694139,38.116933],[13.3694492,38.1169063]]]}},{"type":"Feature","properties":{"Codice":"SU_03","Gruppo":"Sito UNESCO (edificio)","altezza":14,"osm_id":"way/86870886","name":"Santa Maria dell’Ammiraglio (La Martorana)","quota":61.32138880664737,"tetto":100.16875387899881},"geometry":{"type":"Polygon","coordinates":[[[13.3627025,38.1148214],[13.3628518,38.1148334],[13.362856,38.1148011],[13.363046,38.1148164],[13.363049,38.1147935],[13.363119,38.1147992],[13.3631281,38.1147297],[13.3630572,38.114724],[13.3630605,38.114698],[13.3628702,38.1146827],[13.3628732,38.1146591],[13.3627194,38.1146467],[13.3627112,38.1147097],[13.3626625,38.1147058],[13.3626599,38.1147259],[13.3626579,38.1147411],[13.3627124,38.1147455],[13.3627025,38.1148214]]]}},{"type":"Feature","properties":{"Codice":"SU_02","Gruppo":"Sito UNESCO (edificio)","altezza":13.5,"osm_id":"way/86870896","name":"Chiesa di San Cataldo","quota":62.875039581103735,"tetto":91.18875258093723},"geometry":{"type":"Polygon","coordinates":[[[13.3624031,38.1148001],[13.3624307,38.1147978],[13.3625485,38.1147882],[13.3625374,38.1147042],[13.362392,38.1147161],[13.3624031,38.1148001]]]}},{"type":"Feature","properties":{"Codice":"M_03","Gruppo":"Museo","altezza":25.1,"osm_id":"way/49772131","name":"Chiesa di San Nicolò da Tolentino (Palermo)","quota":61.21369787486211,"tetto":119.21098181043263},"geometry":{"type":"Polygon","coordinates":[[[13.362762,38.1139796],[13.3627661,38.1139602],[13.3628226,38.1136948],[13.3634173,38.1137733],[13.3634085,38.1138147],[13.3633761,38.1139666],[13.363248,38.1139498],[13.3632246,38.1140599],[13.363089,38.1140421],[13.363093,38.1140233],[13.3628793,38.1139965],[13.362762,38.1139796]]]}},{"type":"Feature","properties":{"Codice":"M_02","Gruppo":"Museo","altezza":16.6,"osm_id":"way/279887153","name":null,"quota":52.60948074899731,"tetto":99.04286622309205},"geometry":{"type":"Polygon","coordinates":[[[13.3656939,38.1151899],[13.3656983,38.1152247],[13.3657859,38.115217],[13.3657781,38.1151433],[13.3659429,38.1151073],[13.3659191,38.1150451],[13.3656905,38.1150904],[13.3656939,38.1151899]]]}},{"type":"Feature","properties":{"Codice":"U_17","Gruppo":"Sede amministrativa/istituzionale","altezza":16,"osm_id":"way/279883071","name":null,"quota":69.84803916554598,"tetto":72.24214228402815},"geometry":{"type":"Polygon","coordinates":[[[13.3670662,38.1128892],[13.3671396,38.1129121],[13.3673265,38.112585],[13.3671173,38.1125237],[13.3670831,38.1125906],[13.367093,38.1125948],[13.3670671,38.1126573],[13.3670804,38.1126619],[13.3671407,38.1126824],[13.3671911,38.1126996],[13.3671623,38.1127463],[13.3671334,38.1127931],[13.3670946,38.1128559],[13.3670451,38.1128405],[13.3670255,38.1128764],[13.3670662,38.1128892]]]}},{"type":"Feature","properties":{"Codice":"U_14","Gruppo":"Sede amministrativa/istituzionale","altezza":7.9,"osm_id":"way/279888469","name":"Casa comunale","quota":46.345922932545655,"tetto":83.06125329433274},"geometry":{"type":"Polygon","coordinates":[[[13.3658442,38.1188699],[13.3658635,38.1188568],[13.365884,38.1188429],[13.3660142,38.1189154],[13.3660399,38.1188848],[13.366062,38.1188584],[13.3660623,38.1188387],[13.3659111,38.118751],[13.3659282,38.1187305],[13.3658752,38.1187015],[13.365788,38.1188139],[13.3657777,38.1188272],[13.3658442,38.1188699]]]}},{"type":"Feature","properties":{"Codice":"U_13","Gruppo":"Sede amministrativa/istituzionale","altezza":14.9,"osm_id":"way/279887642","name":null,"quota":50.62731079700976,"tetto":85.96671113399957},"geometry":{"type":"Polygon","coordinates":[[[13.3648967,38.120314],[13.3649089,38.1203206],[13.3649738,38.120365],[13.3650612,38.1202881],[13.3651679,38.1201933],[13.3649975,38.1201257],[13.3648866,38.1202361],[13.3648394,38.1202832],[13.3648967,38.120314]]]}},{"type":"Feature","properties":{"Codice":"S_21","Gruppo":"Scuola","altezza":6,"osm_id":"way/81388756","name":"Istituto Comprensivo Lombardo Radice","quota":91.08781891122989,"tetto":119.14546470903845},"geometry":{"type":"Polygon","coordinates":[[[13.3435134,38.1088704],[13.3436196,38.1089117],[13.3436967,38.108789],[13.3438375,38.1088438],[13.3437997,38.108904],[13.3437673,38.1088914],[13.3437081,38.1089857],[13.343918,38.1090672],[13.3439785,38.1089707],[13.3439611,38.1089639],[13.343989,38.1089193],[13.3441074,38.1089651],[13.3440099,38.1091209],[13.3441395,38.1091711],[13.3442919,38.1089273],[13.3441039,38.1088545],[13.3441141,38.1088382],[13.3438371,38.1087307],[13.3438271,38.1087467],[13.3436375,38.1086729],[13.3435134,38.1088704]]]}},{"type":"Feature","properties":{"Codice":"SU_06","Gruppo":"Sito UNESCO (edificio)","altezza":9.2,"osm_id":"way/49786077","name":"Chiesa di San Giovanni degli Eremiti","quota":71.84301483927274,"tetto":101.06194123002498},"geometry":{"type":"Polygon","coordinates":[[[13.354512,38.1095779],[13.3545423,38.1095401],[13.3545618,38.109512],[13.3546979,38.1095756],[13.3547211,38.1095448],[13.3547059,38.1095377],[13.3547867,38.1094308],[13.3548687,38.1094692],[13.354682,38.1097164],[13.3546562,38.1097043],[13.3546105,38.1096829],[13.3546434,38.1096393],[13.354512,38.1095779]]]}},{"type":"Feature","properties":{"Codice":"SU_05","Gruppo":"Sito UNESCO (edificio)","altezza":24.5,"osm_id":"rel/395010","name":"Palazzo dei Normanni","quota":103.16385177705166,"tetto":144.58306434645138},"geometry":{"type":"Polygon","coordinates":[[[13.35282,38.1121074],[13.3526541,38.1120462],[13.3526692,38.1120154],[13.3527549,38.1118416],[13.352955,38.1114221],[13.3530861,38.111459],[13.3531417,38.1113404],[13.353021,38.1113005],[13.3530243,38.1112901],[13.3528863,38.1112505],[13.3529397,38.1111454],[13.3529496,38.1111485],[13.3529963,38.1110574],[13.3529767,38.1110511],[13.3531298,38.1107358],[13.3530606,38.1107174],[13.3530942,38.1106236],[13.3532041,38.1104291],[13.3532376,38.1103793],[13.3533321,38.1103043],[13.3533633,38.110297],[13.3535777,38.1102331],[13.3537996,38.110374],[13.3537027,38.1104381],[13.3539244,38.1105354],[13.3538537,38.1106141],[13.3539518,38.1106656],[13.3539441,38.11068],[13.3541348,38.1107616],[13.3539834,38.110916],[13.3539603,38.110905],[13.3534488,38.1113219],[13.3533992,38.1114037],[13.3533099,38.1115595],[13.3533512,38.1115724],[13.3533213,38.1116331],[13.3531393,38.1121771],[13.3530219,38.1121423],[13.352947,38.1121182],[13.3528451,38.1120812],[13.3528296,38.1121115],[13.35282,38.1121074]],[[13.3532294,38.1117154],[13.3532772,38.1116209],[13.3530829,38.1115663],[13.3528777,38.1120044],[13.353052,38.1120663],[13.3531968,38.1117799],[13.3532294,38.1117154]],[[13.3533953,38.1106767],[13.3534966,38.1104878],[13.3537296,38.1105669],[13.3536246,38.1107532],[13.3533953,38.1106767]],[[13.3532266,38.111114],[13.3533335,38.1109015],[13.353536,38.1109706],[13.3533867,38.1111623],[13.3532266,38.111114]],[[13.3536342,38.1109681],[13.3537577,38.1108721],[13.3537712,38.1108679],[13.3536484,38.1108181],[13.3536374,38.110848],[13.3536908,38.1108664],[13.3536342,38.1109681]]]}},{"type":"Feature","properties":{"Codice":"SU_04","Gruppo":"Sito UNESCO (edificio)","altezza":37.1,"osm_id":"way/355368162","name":"Cattedrale di Palermo","quota":82.25165754212664,"tetto":147.7445893903102},"geometry":{"type":"Polygon","coordinates":[[[13.3561307,38.1145266],[13.3560566,38.1146153],[13.3559006,38.1145329],[13.3559732,38.1144458],[13.3554287,38.1141649],[13.3554348,38.1141579],[13.3555263,38.1140485],[13.3560807,38.1143358],[13.3561518,38.1142507],[13.3562989,38.1143268],[13.3562344,38.1144039],[13.3564188,38.1144992],[13.356316,38.1146224],[13.3561307,38.1145266]]]}},{"type":"Feature","properties":{"Codice":"A_16","Gruppo":"Asilo","altezza":7.3,"osm_id":"way/279888513","name":null,"quota":68.88933471098659,"tetto":96.16072803033951},"geometry":{"type":"Polygon","coordinates":[[[13.3567937,38.1107207],[13.3567824,38.1107294],[13.3568834,38.1108098],[13.3569902,38.110726],[13.3569628,38.1107042],[13.3570334,38.1106489],[13.3569578,38.1105886],[13.3570046,38.110552],[13.3569237,38.1104877],[13.3568031,38.1105894],[13.3567947,38.1105827],[13.3567069,38.1106514],[13.3567937,38.1107207]]]}},{"type":"Feature","properties":{"Codice":"S_22","Gruppo":"Scuola","altezza":9,"osm_id":"rel/1223238","name":null,"quota":63.70270983057165,"tetto":100.58522339117081},"geometry":{"type":"Polygon","coordinates":[[[13.3642951,38.1083454],[13.3645984,38.107912],[13.3650109,38.1080945],[13.3647188,38.1085191],[13.3645649,38.1084542],[13.3645518,38.1084845],[13.3645104,38.1084974],[13.3644652,38.1084813],[13.3644566,38.1084479],[13.3644802,38.108427],[13.3642951,38.1083454]],[[13.364479,38.1083146],[13.3646745,38.1083895],[13.3648342,38.1081314],[13.3646387,38.1080565],[13.364479,38.1083146]]]}},{"type":"Feature","properties":{"Codice":"U_19","Gruppo":"Sede amministrativa/istituzionale","altezza":15,"osm_id":"way/279883080","name":null,"quota":58.73071075414061,"tetto":119.44294968320808},"geometry":{"type":"Polygon","coordinates":[[[13.3660954,38.1110978],[13.3661212,38.111099],[13.366154,38.1110902],[13.3661761,38.1110763],[13.3662432,38.1109457],[13.366164,38.1109212],[13.3661332,38.110887],[13.3661037,38.1108411],[13.3660908,38.1107858],[13.3661539,38.1106725],[13.366134,38.1106552],[13.3661359,38.1106393],[13.3659047,38.1105368],[13.3658766,38.1105784],[13.3660355,38.1106529],[13.3658088,38.1109928],[13.3660954,38.1110978]]]}},{"type":"Feature","properties":{"Codice":"U_18","Gruppo":"Sede amministrativa/istituzionale","altezza":29.7,"osm_id":"way/279882278","name":null,"quota":58.022781099791814,"tetto":133.37085072563377},"geometry":{"type":"Polygon","coordinates":[[[13.3664209,38.1111882],[13.3664291,38.1112035],[13.3664403,38.1112183],[13.366606,38.1112735],[13.366611,38.1112752],[13.3668103,38.1109923],[13.3669093,38.1110362],[13.3669769,38.1110661],[13.3670037,38.1110225],[13.3667471,38.1109127],[13.3667141,38.1109263],[13.3666954,38.1109709],[13.3666447,38.1110016],[13.3665984,38.1110164],[13.3665441,38.1110256],[13.3664932,38.1110118],[13.3664149,38.1111669],[13.3664209,38.1111882]]]}},{"type":"Feature","properties":{"Codice":"S_24","Gruppo":"Scuola","altezza":13.6,"osm_id":"way/33473313","name":"Rosolino Pilo","quota":69.25836161850314,"tetto":99.96617774012101},"geometry":{"type":"Polygon","coordinates":[[[13.3643693,38.1034508],[13.3646966,38.1037222],[13.36478,38.1036596],[13.3645378,38.1034532],[13.3649551,38.1031588],[13.3651784,38.1033526],[13.3652675,38.1032931],[13.3649471,38.1030192],[13.3643693,38.1034508]]]}},{"type":"Feature","properties":{"Codice":"SU_07","Gruppo":"Sito UNESCO (edificio)","altezza":1.14,"occupancy":"UNK","quota":49.29882337693222,"tetto":80.4291338425697,"osm_id":null,"name":null,"fonte":"pmtiles-fallback"},"geometry":{"type":"Polygon","coordinates":[[[13.374970704317093,38.10539434511213],[13.375220149755478,38.10469785422606],[13.375141024589539,38.104680969516096],[13.374890238046646,38.10537640527866],[13.374970704317093,38.10539434511213]]]}},{"type":"Feature","properties":{"Codice":"S_28","Gruppo":"Scuola","altezza":11,"osm_id":"way/80688806","name":null,"quota":62.4706197336428,"tetto":93.4811896017943},"geometry":{"type":"Polygon","coordinates":[[[13.3899444,38.0990575],[13.3903757,38.0990156],[13.3903705,38.0989307],[13.3904095,38.0989389],[13.3903965,38.0988775],[13.3903432,38.098854],[13.3903315,38.0987722],[13.3902315,38.0987886],[13.3902458,38.098899],[13.3902016,38.0989021],[13.3901938,38.098852],[13.3900873,38.0988816],[13.3900964,38.0989113],[13.3900444,38.0989184],[13.3900236,38.0988039],[13.3899223,38.0988233],[13.3899444,38.0990575]]]}},{"type":"Feature","properties":{"Codice":"U_20","Gruppo":"Sede amministrativa/istituzionale","altezza":11.2,"osm_id":"way/81301758","name":null,"quota":57.13488615133358,"tetto":101.31195997334787},"geometry":{"type":"Polygon","coordinates":[[[13.3676786,38.1110792],[13.3682995,38.111379],[13.3685629,38.1110556],[13.368231,38.1108854],[13.3681968,38.1108905],[13.3680919,38.1108484],[13.367942,38.1110253],[13.3678992,38.1109983],[13.3680469,38.1108062],[13.3679258,38.1107463],[13.3676786,38.1110792]]]}},{"type":"Feature","properties":{"Codice":"S_23","Gruppo":"Scuola","altezza":15.7,"osm_id":"way/81301669","name":null,"quota":54.616506090612994,"tetto":87.05042495871689},"geometry":{"type":"Polygon","coordinates":[[[13.3729772,38.1097809],[13.3731652,38.1098748],[13.3734704,38.1094917],[13.3732711,38.1093862],[13.3732269,38.1094508],[13.3733118,38.1094966],[13.3732775,38.1095364],[13.3732459,38.1095215],[13.3731399,38.1096506],[13.3731736,38.1096661],[13.3730971,38.1097638],[13.3730172,38.1097174],[13.3729772,38.1097809]]]}},{"type":"Feature","properties":{"Codice":"S_26","Gruppo":"Scuola","altezza":9.6,"osm_id":"way/80725585","name":"Scuola Elementare Guglielmo Oberdan","quota":67.74010378368042,"tetto":94.34500884849282},"geometry":{"type":"Polygon","coordinates":[[[13.3696225,38.1002631],[13.369749,38.1000839],[13.3698688,38.0998901],[13.3700442,38.0999564],[13.3700409,38.099979],[13.3702349,38.1000547],[13.3702517,38.1000414],[13.3704205,38.1001104],[13.370132,38.1005485],[13.370051,38.1005087],[13.3702669,38.1001476],[13.3699194,38.1000148],[13.3697321,38.1003056],[13.3696225,38.1002631]]]}},{"type":"Feature","properties":{"Codice":"A_26","Gruppo":"Asilo","altezza":3.6,"osm_id":"way/80742855;way/80742982","name":null},"geometry":{"type":"MultiPolygon","coordinates":[[[[13.3740872,38.092654],[13.3741618,38.0925318],[13.3744283,38.0926441],[13.3743885,38.0927028],[13.3743202,38.0926796],[13.3743034,38.0927176],[13.3744483,38.0927804],[13.3744095,38.0928308],[13.3742678,38.0927796],[13.3742741,38.0927589],[13.3741733,38.0927176],[13.3741827,38.0926937],[13.3740872,38.092654]]],[[[13.374405,38.0927127],[13.3744544,38.0927301],[13.3744848,38.0926929],[13.374426,38.092669],[13.374405,38.0927127]]]]}},{"type":"Feature","properties":{"Codice":"U_22","Gruppo":"Sede amministrativa/istituzionale","altezza":33,"osm_id":"way/80719888","name":null,"quota":62.89913891215388,"tetto":116.21590753826882},"geometry":{"type":"Polygon","coordinates":[[[13.3726474,38.1012975],[13.3731435,38.1015599],[13.3732186,38.101472],[13.3727225,38.1012096],[13.3726474,38.1012975]]]}},{"type":"Feature","properties":{"Codice":"A_24","Gruppo":"Asilo","altezza":23,"osm_id":"way/81125434","name":null,"quota":101.00771773536961,"tetto":161.27336298973916},"geometry":{"type":"Polygon","coordinates":[[[13.3471362,38.096654],[13.3472145,38.0967098],[13.3469833,38.0969352],[13.3470653,38.0969809],[13.3470994,38.0969628],[13.3472845,38.097086],[13.3472163,38.0971498],[13.3470266,38.097028],[13.3470423,38.0970114],[13.3469575,38.0969476],[13.3468801,38.0970128],[13.3467991,38.0969563],[13.3471362,38.096654]]]}},{"type":"Feature","properties":{"Codice":"A_25","Gruppo":"Asilo","altezza":8.4,"osm_id":"way/279323366","name":null,"quota":75.26058345862965,"tetto":100.04374450749505},"geometry":{"type":"Polygon","coordinates":[[[13.3446323,38.1123368],[13.3446401,38.1123176],[13.3449244,38.1123899],[13.3449572,38.112309],[13.344877,38.1122885],[13.3448737,38.1122743],[13.3447231,38.1122315],[13.3447195,38.1122404],[13.3446775,38.1122297],[13.3446887,38.1122026],[13.3444838,38.1121505],[13.344429,38.1122852],[13.3446323,38.1123368]]]}},{"type":"Feature","properties":{"Codice":"SU_01","Gruppo":"Sito UNESCO (edificio)","altezza":28.4,"osm_id":"way/186187084","name":"Castello della Zisa","quota":88.15223690719053,"tetto":157.7782039763291},"geometry":{"type":"Polygon","coordinates":[[[13.3409355,38.1169385],[13.3409441,38.1166083],[13.3410303,38.1166097],[13.341031,38.1165833],[13.341084,38.1165841],[13.3410834,38.1166072],[13.3411748,38.1166086],[13.3411662,38.1169402],[13.3410772,38.1169388],[13.3410765,38.1169648],[13.3410202,38.1169639],[13.3410208,38.1169398],[13.3409355,38.1169385]]]}},{"type":"Feature","properties":{"Codice":"S_19","Gruppo":"Scuola","altezza":13,"osm_id":"way/279324067","name":null,"quota":74.54589654149981,"tetto":116.3883595136898},"geometry":{"type":"Polygon","coordinates":[[[13.3499674,38.116525],[13.3499782,38.1164965],[13.3499991,38.1165013],[13.3500176,38.1164506],[13.3496692,38.1163706],[13.3498271,38.1159409],[13.3500621,38.1159949],[13.3500718,38.115969],[13.3500901,38.1159732],[13.3501091,38.115922],[13.3497622,38.1158423],[13.3497357,38.1159143],[13.3497164,38.1159665],[13.3496054,38.1162682],[13.349562,38.1162583],[13.3495118,38.116395],[13.3495032,38.1164184],[13.3499674,38.116525]]]}},{"type":"Feature","properties":{"Codice":"S_17","Gruppo":"Scuola","altezza":16.4,"osm_id":"way/279323431;way/279323879","name":null},"geometry":{"type":"MultiPolygon","coordinates":[[[[13.3444543,38.1198594],[13.3444331,38.1199174],[13.3443503,38.1198985],[13.3443397,38.1199278],[13.3443308,38.1199522],[13.344365,38.1199599],[13.3444107,38.1199721],[13.3444029,38.1199914],[13.3445281,38.1200243],[13.3446092,38.1198022],[13.3443166,38.1197356],[13.3442854,38.1198209],[13.3444543,38.1198594]]],[[[13.3443677,38.1200852],[13.3443665,38.1200885],[13.3444909,38.1201134],[13.3445068,38.120117],[13.3445396,38.1200269],[13.3445281,38.1200243],[13.3444029,38.1199914],[13.3444107,38.1199721],[13.344365,38.1199599],[13.3443576,38.1199802],[13.3443235,38.1199724],[13.3442589,38.1199577],[13.3442171,38.1199482],[13.3441475,38.1199324],[13.344113,38.1200271],[13.3443677,38.1200852]]]]}},{"type":"Feature","properties":{"Codice":"A_11","Gruppo":"Asilo","altezza":8,"osm_id":"way/243920718","name":null,"quota":102.35349996748312,"tetto":133.85886217468703},"geometry":{"type":"Polygon","coordinates":[[[13.3325727,38.1156392],[13.3333431,38.1157352],[13.3336013,38.1160238],[13.3331297,38.1163085],[13.3332526,38.1164444],[13.3335016,38.1164732],[13.3334671,38.1166571],[13.3324548,38.1165292],[13.332467,38.1164716],[13.332404,38.1164644],[13.3324263,38.1163552],[13.3325727,38.1156392]]]}},{"type":"Feature","properties":{"Codice":"A_10","Gruppo":"Asilo","altezza":25.1,"osm_id":"way/279177128;way/279174854;way/279173778;way/279175321;way/279174171","name":null},"geometry":{"type":"MultiPolygon","coordinates":[[[[13.3269453,38.11988],[13.3269961,38.119875],[13.3270496,38.1198689],[13.3270478,38.1198614],[13.3270398,38.1198238],[13.327031,38.1197834],[13.3269783,38.11979],[13.3269288,38.1197961],[13.3269453,38.11988]]],[[[13.3270176,38.1199953],[13.3271044,38.1199857],[13.3270815,38.1198577],[13.3270478,38.1198614],[13.3270496,38.1198689],[13.3269961,38.119875],[13.3270176,38.1199953]]],[[[13.327031,38.1197834],[13.3270398,38.1198238],[13.3271552,38.1198117],[13.3271443,38.1197502],[13.3270261,38.1197634],[13.327031,38.1197834]]],[[[13.3267877,38.119925],[13.326951,38.1199045],[13.3269453,38.11988],[13.3269357,38.1198375],[13.326877,38.1198457],[13.3267732,38.1198601],[13.3267877,38.119925]]],[[[13.3268959,38.1198006],[13.3269288,38.1197961],[13.3269783,38.11979],[13.3269615,38.119688],[13.3268773,38.1196973],[13.3268959,38.1198006]]]]}},{"type":"Feature","properties":{"Codice":"S_11","Gruppo":"Scuola","altezza":23.9,"osm_id":"way/244849326","name":null,"quota":71.94994971432423,"tetto":114.36401573256504},"geometry":{"type":"Polygon","coordinates":[[[13.3435825,38.1310615],[13.3436585,38.1309002],[13.3434501,38.1308351],[13.3434799,38.1307753],[13.3436056,38.1308091],[13.3437379,38.130502],[13.3436751,38.130476],[13.3436949,38.130437],[13.343771,38.1304552],[13.3438173,38.130385],[13.3439199,38.1304032],[13.3437743,38.1306504],[13.3437819,38.130669],[13.3437515,38.1307297],[13.3437164,38.1307316],[13.3436757,38.1308043],[13.3437879,38.1308467],[13.3437967,38.1308296],[13.3439439,38.1308869],[13.3439472,38.130909],[13.3440779,38.1309519],[13.3441275,38.1308674],[13.3440944,38.1308557],[13.3442913,38.1305408],[13.3443227,38.1305512],[13.3443756,38.1304601],[13.3438282,38.1302611],[13.3438067,38.1303027],[13.3437471,38.1302728],[13.343628,38.1303053],[13.3432327,38.1309623],[13.3435825,38.1310615]]]}},{"type":"Feature","properties":{"Codice":"M_01","Gruppo":"Museo","altezza":12,"osm_id":"way/204463217","name":"Palazzo Ziino","quota":63.39317519019108,"tetto":102.95525080595229},"geometry":{"type":"Polygon","coordinates":[[[13.3515391,38.1240381],[13.3514158,38.1242548],[13.3515843,38.124296],[13.3516145,38.1242124],[13.3516791,38.1242274],[13.3516174,38.1243902],[13.3517061,38.1244114],[13.3518085,38.1241043],[13.3517003,38.1240788],[13.3515391,38.1240381]]]}},{"type":"Feature","properties":{"Codice":"S_18","Gruppo":"Scuola","altezza":13.9,"osm_id":"way/278475723;way/278803856","name":null},"geometry":{"type":"MultiPolygon","coordinates":[[[[13.3527931,38.12008],[13.3528814,38.1198545],[13.3529032,38.1197989],[13.3529813,38.1195995],[13.3527168,38.1195348],[13.3526833,38.11962],[13.352793,38.1196469],[13.3526713,38.1199574],[13.3525636,38.119931],[13.3525303,38.1200157],[13.3527931,38.12008]]],[[[13.3529095,38.1198595],[13.3529339,38.1198484],[13.3529447,38.1198276],[13.3529303,38.1198055],[13.3529032,38.1197989],[13.3528814,38.1198545],[13.3529095,38.1198595]]]]}},{"type":"Feature","properties":{"Codice":"S_12","Gruppo":"Scuola","altezza":10.9,"occupancy":"EDU2","quota":82.8646783597004,"tetto":95.51833910487312,"osm_id":null,"name":null,"fonte":"pmtiles-fallback"},"geometry":{"type":"Polygon","coordinates":[[[13.337509632110596,38.12670164583702],[13.337509632110596,38.12660986283734],[13.33740234375,38.12658981825882],[13.33717167377472,38.126546564149606],[13.337069749832153,38.12687466175254],[13.33740234375,38.1269390151287],[13.337509632110596,38.12696011458394],[13.337509632110596,38.12686516698733],[13.33740234375,38.12684406750466],[13.33722934126854,38.126810308319676],[13.337277621030807,38.12665733681712],[13.33740234375,38.12668160128371],[13.337509632110596,38.12670164583702]]]}},{"type":"Feature","properties":{"Codice":"S_14","Gruppo":"Scuola","altezza":14.3,"osm_id":"way/279169013","name":null,"quota":76.40983801208773,"tetto":120.8422229799896},"geometry":{"type":"Polygon","coordinates":[[[13.3430397,38.1261039],[13.3431544,38.1257983],[13.3431358,38.1257939],[13.3431463,38.1257657],[13.3431649,38.1257702],[13.3432517,38.125539],[13.3431005,38.1255037],[13.3430799,38.1255586],[13.3431239,38.1255689],[13.3430598,38.1257398],[13.3429671,38.1257181],[13.3429497,38.1257643],[13.3430437,38.1257863],[13.3429766,38.1259651],[13.3429571,38.1260171],[13.342888,38.1260009],[13.3428637,38.1260627],[13.3430397,38.1261039]]]}},{"type":"Feature","properties":{"Codice":"S_09","Gruppo":"Scuola","altezza":14.2,"osm_id":"way/45357540","name":"Scuola Media Statale Alberico Gentili","quota":112.29749812172106,"tetto":112.2974981233367},"geometry":{"type":"Polygon","coordinates":[[[13.3472334,38.1315788],[13.3471808,38.1316732],[13.3471621,38.1316668],[13.3471336,38.131718],[13.3470796,38.1316994],[13.3469881,38.1316679],[13.3470238,38.1316038],[13.3466613,38.131479],[13.3466016,38.1315862],[13.3466797,38.1316131],[13.3466417,38.1316815],[13.346562,38.131654],[13.3464954,38.1317737],[13.3465444,38.1317906],[13.3464957,38.131878],[13.3463268,38.1318198],[13.3465852,38.1313555],[13.3472334,38.1315788]]]}},{"type":"Feature","properties":{"Codice":"U_11","Gruppo":"Sede amministrativa/istituzionale","altezza":36.2,"osm_id":"way/1084251019","name":null,"quota":83.32332170275959,"tetto":141.7785165470145},"geometry":{"type":"Polygon","coordinates":[[[13.3457386,38.1328456],[13.3459649,38.1329003],[13.3459552,38.132925],[13.3459252,38.1330017],[13.3459114,38.1330371],[13.3456851,38.1329824],[13.3456989,38.1329471],[13.3457345,38.1328559],[13.3457386,38.1328456]]]}},{"type":"Feature","properties":{"Codice":"S_08","Gruppo":"Scuola","altezza":35.7,"osm_id":"way/278479398;way/278477880;way/278476388","name":null},"geometry":{"type":"MultiPolygon","coordinates":[[[[13.3517911,38.1401401],[13.3518564,38.1400693],[13.3517467,38.1400056],[13.3514397,38.1403374],[13.3514667,38.1403535],[13.3514917,38.14037],[13.3514985,38.1403621],[13.3515598,38.1403993],[13.3515836,38.1403726],[13.351596,38.1403587],[13.3516313,38.1403169],[13.3515479,38.1402667],[13.351582,38.1402322],[13.3516482,38.140273],[13.351666,38.1402549],[13.351683,38.1402654],[13.3517472,38.140197],[13.3517312,38.1401888],[13.3517482,38.1401693],[13.3516776,38.1401287],[13.3517105,38.1400931],[13.3517911,38.1401401]]],[[[13.3518671,38.1400576],[13.3517961,38.1400168],[13.3517553,38.139993],[13.3517427,38.1399857],[13.351739,38.1399898],[13.3514267,38.1403283],[13.3514348,38.1403329],[13.3513962,38.1403741],[13.351441,38.1403914],[13.3514488,38.1403798],[13.3514667,38.1403535],[13.3514397,38.1403374],[13.3517467,38.1400056],[13.3518564,38.1400693],[13.3518671,38.1400576]]],[[[13.351715,38.1399745],[13.3513098,38.140405],[13.351313,38.1404068],[13.3513168,38.1404026],[13.3513242,38.1403947],[13.351344,38.1404061],[13.3513796,38.1403677],[13.3513962,38.1403741],[13.3514348,38.1403329],[13.3514267,38.1403283],[13.351739,38.1399898],[13.351715,38.1399745]]]]}},{"type":"Feature","properties":{"Codice":"A_05","Gruppo":"Asilo","altezza":4.2,"osm_id":"way/272383944","name":null,"quota":58.87379462280882,"tetto":86.52099573989224},"geometry":{"type":"Polygon","coordinates":[[[13.3517637,38.1377115],[13.3518174,38.1376238],[13.3518058,38.1376194],[13.3518965,38.1374713],[13.3520747,38.1375388],[13.3519795,38.1376943],[13.3519432,38.1376805],[13.3519069,38.1377398],[13.3518878,38.1377326],[13.3518749,38.1377536],[13.3517637,38.1377115]]]}},{"type":"Feature","properties":{"Codice":"S_06","Gruppo":"Scuola","altezza":10.8,"osm_id":"way/278479378","name":null,"quota":74.5044787700951,"tetto":105.26576232586321},"geometry":{"type":"Polygon","coordinates":[[[13.3426928,38.1410249],[13.3425876,38.1411872],[13.3425589,38.1411755],[13.3425176,38.1411589],[13.3424761,38.1411421],[13.3424507,38.1411812],[13.3424288,38.141215],[13.3424618,38.1412284],[13.3424493,38.1412477],[13.3426554,38.1413311],[13.3427182,38.1412343],[13.3427104,38.1412311],[13.3429721,38.1408277],[13.3429823,38.1408318],[13.3430414,38.1407405],[13.3428288,38.1406544],[13.3428272,38.1406567],[13.3427069,38.1406081],[13.3426507,38.1406947],[13.3428538,38.1407769],[13.3427459,38.1409431],[13.3426928,38.1410249]]]}},{"type":"Feature","properties":{"Codice":"S_16","Gruppo":"Scuola","altezza":16.1,"osm_id":"way/278803955","name":null,"quota":61.16625527255245,"tetto":94.96405449867493},"geometry":{"type":"Polygon","coordinates":[[[13.3539088,38.1244144],[13.3539513,38.1243485],[13.3536908,38.1242431],[13.3537136,38.1242127],[13.3536109,38.1241687],[13.353514,38.1243199],[13.3539088,38.1244144]]]}},{"type":"Feature","properties":{"Codice":"S_13","Gruppo":"Scuola","altezza":17,"osm_id":"way/119691238","name":null,"quota":63.47676679073741,"tetto":111.66037797180442},"geometry":{"type":"Polygon","coordinates":[[[13.3490042,38.1285886],[13.3490965,38.1284489],[13.3491707,38.1284777],[13.3491947,38.1284733],[13.349238,38.1284112],[13.3493576,38.1284622],[13.3493699,38.1284829],[13.3494587,38.1285212],[13.3494854,38.1285124],[13.349613,38.1285634],[13.3495708,38.1286256],[13.3495796,38.128642],[13.3496613,38.1286748],[13.3495667,38.1288214],[13.3494319,38.128764],[13.3494699,38.1287076],[13.3494325,38.1286722],[13.3494429,38.1286277],[13.34928,38.1285611],[13.3492275,38.1285955],[13.3491751,38.1285863],[13.3491404,38.1286479],[13.3490042,38.1285886]]]}},{"type":"Feature","properties":{"Codice":"S_10","Gruppo":"Scuola","altezza":15.6,"osm_id":"way/278479526;way/278804589","name":null},"geometry":{"type":"MultiPolygon","coordinates":[[[[13.3532797,38.133154],[13.3531098,38.1334214],[13.3531594,38.1334411],[13.3538402,38.1337183],[13.3539016,38.1337426],[13.3540707,38.1334762],[13.3540255,38.1334583],[13.3539866,38.1334428],[13.353882,38.1334013],[13.3538573,38.1334401],[13.3539521,38.1334777],[13.3538396,38.1336547],[13.3535647,38.1335457],[13.3535821,38.1335183],[13.3535165,38.1334923],[13.3535011,38.1335166],[13.3532315,38.1334096],[13.3533436,38.1332329],[13.3534426,38.1332723],[13.3534699,38.1332294],[13.3533684,38.1331891],[13.3533309,38.1331743],[13.3532797,38.133154]]],[[[13.3534067,38.1335809],[13.3534352,38.1335922],[13.3535266,38.1336326],[13.3535545,38.1336437],[13.3538206,38.1337491],[13.3538402,38.1337183],[13.3531594,38.1334411],[13.3531383,38.1334745],[13.3534067,38.1335809]]]]}},{"type":"Feature","properties":{"Codice":"U_15","Gruppo":"Sede amministrativa/istituzionale","altezza":12,"osm_id":"way/279887800","name":null,"quota":49.91864871240574,"tetto":74.87953051062543},"geometry":{"type":"Polygon","coordinates":[[[13.3629046,38.1184424],[13.3630861,38.1179647],[13.3632783,38.1176684],[13.3635332,38.1174814],[13.3636426,38.117284],[13.3634347,38.117218],[13.3632189,38.117603],[13.3628145,38.1184173],[13.3629046,38.1184424]]]}},{"type":"Feature","properties":{"Codice":"S_15","Gruppo":"Scuola","altezza":16.8,"osm_id":"way/278476410","name":null,"quota":48.70990188868435,"tetto":89.06347513062157},"geometry":{"type":"Polygon","coordinates":[[[13.3617055,38.1256134],[13.362132,38.1257848],[13.3622322,38.1256214],[13.3622454,38.1255999],[13.3618301,38.1254119],[13.3617055,38.1256134]]]}},{"type":"Feature","properties":{"Codice":"S_27","Gruppo":"Scuola","altezza":12,"osm_id":"way/80711232","name":null,"quota":69.16345278536772,"tetto":98.03671916634009},"geometry":{"type":"Polygon","coordinates":[[[13.3841105,38.094758],[13.384404,38.0945873],[13.3843585,38.0945299],[13.3844059,38.0945069],[13.3843493,38.0944639],[13.3843165,38.0944811],[13.3842491,38.094418],[13.3841707,38.0944668],[13.38424,38.0945543],[13.3840978,38.094626],[13.3840121,38.0945457],[13.3839392,38.0945901],[13.3839993,38.0946533],[13.3839519,38.0946877],[13.384023,38.0947437],[13.384065,38.0947121],[13.3841105,38.094758]]]}},{"type":"Feature","properties":{"Codice":"U_23","Gruppo":"Sede amministrativa/istituzionale","altezza":19.9,"osm_id":"way/80717352","name":null,"quota":65.97180358057246,"tetto":106.20036744862077},"geometry":{"type":"Polygon","coordinates":[[[13.3831124,38.0947754],[13.3832483,38.0947615],[13.3831971,38.0943291],[13.3831754,38.0943213],[13.3831872,38.0942996],[13.383201,38.0942438],[13.3831911,38.0941524],[13.3831675,38.094109],[13.3830356,38.0941105],[13.3830375,38.0941555],[13.3830237,38.0941803],[13.3830375,38.0943074],[13.3830572,38.0943151],[13.3830651,38.0943694],[13.3830454,38.0943818],[13.383071,38.0945213],[13.3830986,38.0945445],[13.3830966,38.0945817],[13.3830828,38.0945987],[13.3831124,38.0947754]]]}},{"type":"Feature","properties":{"Codice":"U_24","Gruppo":"Sede amministrativa/istituzionale","altezza":2,"osm_id":"way/80978367;way/80978223;way/80978416;way/80978313","name":null},"geometry":{"type":"MultiPolygon","coordinates":[[[[13.3779141,38.0823171],[13.3779299,38.0823153],[13.3779855,38.0822713],[13.3779494,38.0822422],[13.3779249,38.0822632],[13.3778255,38.0821566],[13.3777993,38.0821788],[13.3779141,38.0823171]]],[[[13.3780131,38.0824161],[13.3780446,38.0823946],[13.3780285,38.08238],[13.3780801,38.0823448],[13.3780507,38.0823181],[13.3780102,38.0823458],[13.378028,38.082362],[13.3779855,38.0823911],[13.3780131,38.0824161]]],[[[13.3776425,38.082119],[13.3776826,38.0820988],[13.3778602,38.0823165],[13.3778201,38.0823367],[13.3776425,38.082119]]],[[[13.3777337,38.0820435],[13.3778006,38.0819878],[13.3780734,38.0821905],[13.3780065,38.0822463],[13.3777337,38.0820435]]]]}},{"type":"Feature","properties":{"Codice":"A_19","Gruppo":"Asilo","altezza":4.1,"osm_id":"way/80933169","name":null,"quota":111.01194058903171,"tetto":132.34060433798112},"geometry":{"type":"Polygon","coordinates":[[[13.3599795,38.0825819],[13.3600149,38.0824812],[13.3601264,38.0825081],[13.3601467,38.0825011],[13.3601973,38.0825131],[13.3601999,38.082535],[13.3603075,38.082557],[13.3602949,38.0826128],[13.3603189,38.0826228],[13.3602873,38.0827105],[13.360172,38.0826926],[13.3601707,38.0826726],[13.3600871,38.0826617],[13.3600884,38.0826118],[13.3600276,38.0826028],[13.3599795,38.0825819]]]}},{"type":"Feature","properties":{"Codice":"A_15","Gruppo":"Asilo","altezza":3.8,"osm_id":"way/80933302","name":null,"quota":98.64371515120045,"tetto":125.5107122489453},"geometry":{"type":"Polygon","coordinates":[[[13.3642207,38.086809],[13.364242,38.0867141],[13.3642116,38.0867045],[13.3642237,38.0866598],[13.3643859,38.0866846],[13.3644011,38.0866287],[13.3642399,38.0865992],[13.3642227,38.0866192],[13.3641832,38.086616],[13.3642136,38.0864876],[13.3641275,38.0864676],[13.364089,38.0865921],[13.3641244,38.0866096],[13.3641102,38.0866439],[13.3639998,38.0866295],[13.3639968,38.0866798],[13.3640859,38.0866981],[13.3641001,38.0866822],[13.3641589,38.086691],[13.3641366,38.0867962],[13.3642207,38.086809]]]}},{"type":"Feature","properties":{"Codice":"A_17","Gruppo":"Asilo","altezza":4.4,"osm_id":"way/80764312","name":null,"quota":110.57666414900264,"tetto":131.23881601482856},"geometry":{"type":"Polygon","coordinates":[[[13.3546598,38.0872379],[13.3547449,38.0872495],[13.3547763,38.0871505],[13.3550001,38.087184],[13.3550112,38.0871185],[13.3548392,38.0870894],[13.3548429,38.0870632],[13.3548725,38.0870632],[13.3549058,38.0869613],[13.3548226,38.0869526],[13.3547948,38.0870239],[13.3546376,38.0870035],[13.3546117,38.0870603],[13.3547024,38.0870836],[13.3546598,38.0872379]]]}},{"type":"Feature","properties":{"Codice":"A_13","Gruppo":"Asilo","altezza":5.1,"osm_id":"way/81370290","name":null,"quota":116.99008672367121,"tetto":141.36204703605128},"geometry":{"type":"Polygon","coordinates":[[[13.3313151,38.1052853],[13.3314963,38.1052947],[13.3315347,38.1051371],[13.3315083,38.1051314],[13.3315203,38.1050927],[13.3315107,38.1050512],[13.3315119,38.1050342],[13.3313991,38.1050285],[13.3313811,38.1051201],[13.3313403,38.1051295],[13.3313151,38.1052853]]]}},{"type":"Feature","properties":{"Codice":"S_20","Gruppo":"Scuola","altezza":8.6,"osm_id":"way/279324252","name":null,"quota":115.17963631680568,"tetto":142.1655943270338},"geometry":{"type":"Polygon","coordinates":[[[13.3278422,38.1109208],[13.3279393,38.1109191],[13.3279345,38.1107385],[13.3281116,38.1107354],[13.3281127,38.1107752],[13.3280825,38.1107755],[13.3280876,38.1109677],[13.3282507,38.1109652],[13.32825,38.1109433],[13.3282838,38.1109426],[13.3282793,38.1107702],[13.3282438,38.1107708],[13.3282427,38.1107337],[13.328415,38.1107307],[13.3284198,38.1109122],[13.3285221,38.1109102],[13.3285151,38.1106494],[13.3282441,38.1106536],[13.3282442,38.1106624],[13.3281118,38.1106645],[13.3281116,38.1106555],[13.3278353,38.1106603],[13.3278422,38.1109208]]]}},{"type":"Feature","properties":{"Codice":"A_20","Gruppo":"Asilo","altezza":4,"osm_id":"way/279168786","name":null,"quota":115.52529632462485,"tetto":136.95562617230004},"geometry":{"type":"Polygon","coordinates":[[[13.3152151,38.1243548],[13.3152507,38.1243548],[13.3152507,38.1243633],[13.3153333,38.1243633],[13.3153333,38.124397],[13.3154373,38.124397],[13.3154373,38.1244088],[13.3155427,38.1244088],[13.3155427,38.1243162],[13.315505,38.1243162],[13.315505,38.1242692],[13.3153929,38.1242692],[13.3153929,38.1242451],[13.3153347,38.1242451],[13.3153347,38.1242616],[13.3152151,38.1242616],[13.3152151,38.1243548]]]}},{"type":"Feature","properties":{"Codice":"A_22","Gruppo":"Asilo","altezza":3.3,"osm_id":"way/279169597","name":null,"quota":97.45306645369041,"tetto":126.44004859780938},"geometry":{"type":"Polygon","coordinates":[[[13.3256438,38.1267143],[13.325638,38.1267582],[13.3256173,38.1267565],[13.3256059,38.1268441],[13.3256767,38.1268499],[13.3256886,38.1267593],[13.3257419,38.1267636],[13.3257382,38.1267918],[13.3258937,38.1268044],[13.3259026,38.1267361],[13.3257923,38.1267271],[13.3257972,38.1266896],[13.3257733,38.1266876],[13.325791,38.1265511],[13.325719,38.1265453],[13.3257017,38.1266785],[13.3256456,38.1266739],[13.3256491,38.1266476],[13.3255252,38.1266375],[13.3255166,38.126704],[13.3256438,38.1267143]]]}},{"type":"Feature","properties":{"Codice":"A_14","Gruppo":"Asilo","altezza":4.4,"osm_id":"way/279177372;way/279178149;way/279166923","name":null},"geometry":{"type":"MultiPolygon","coordinates":[[[[13.3355053,38.1305361],[13.3355115,38.1305456],[13.3355207,38.130542],[13.335532,38.1305183],[13.3355262,38.1305091],[13.3355109,38.1305168],[13.3353857,38.130486],[13.3353803,38.1305058],[13.3355053,38.1305361]]],[[[13.3353342,38.1305828],[13.3353613,38.1306257],[13.3353743,38.1306462],[13.3355348,38.1305823],[13.3355115,38.1305456],[13.3355053,38.1305361],[13.3353803,38.1305058],[13.3353475,38.130498],[13.335293,38.1305183],[13.3353342,38.1305828]]],[[[13.3353573,38.1304792],[13.3353857,38.130486],[13.3355109,38.1305168],[13.3355262,38.1305091],[13.3355693,38.1304919],[13.3355463,38.1304559],[13.3355551,38.130438],[13.3355338,38.1304044],[13.335507,38.1304021],[13.3354854,38.1303682],[13.3353252,38.1304319],[13.3353573,38.1304792]]]]}},{"type":"Feature","properties":{"Codice":"A_07","Gruppo":"Asilo","altezza":8.8,"osm_id":"way/279173240;way/279168024;way/279169809","name":null},"geometry":{"type":"MultiPolygon","coordinates":[[[[13.3077034,38.1251841],[13.3078353,38.125195],[13.3078616,38.1249975],[13.3076296,38.1249785],[13.3076033,38.1251759],[13.3077034,38.1251841]]],[[[13.3075281,38.1250441],[13.3075561,38.1250336],[13.3075641,38.124973],[13.3076296,38.1249785],[13.3078616,38.1249975],[13.3079978,38.1250088],[13.3080244,38.1248092],[13.3079156,38.1248002],[13.307908,38.1248573],[13.3079452,38.1248603],[13.3079384,38.1249115],[13.3074651,38.1248722],[13.3074432,38.125037],[13.3075281,38.1250441]]],[[[13.3072837,38.1252772],[13.3073149,38.1252544],[13.3073166,38.1252417],[13.3075654,38.1252623],[13.3075615,38.1252918],[13.3075366,38.1252898],[13.3075097,38.1254923],[13.3076359,38.1255028],[13.3076436,38.1254448],[13.3076169,38.1254426],[13.3076238,38.1253908],[13.308064,38.1254273],[13.3080857,38.1252643],[13.3080115,38.1252581],[13.3080014,38.1253336],[13.3077236,38.1253105],[13.3077164,38.1253647],[13.3076823,38.1253619],[13.3076994,38.1252333],[13.3077034,38.1251841],[13.3076033,38.1251759],[13.3072412,38.1251458],[13.3072244,38.1252723],[13.3072837,38.1252772]]]]}},{"type":"Feature","properties":{"Codice":"A_18","Gruppo":"Asilo","altezza":3.5,"osm_id":"way/279168818","name":null,"quota":124.10541412040695,"tetto":144.66063111556358},"geometry":{"type":"Polygon","coordinates":[[[13.3022207,38.1309998],[13.3022465,38.131],[13.3022462,38.1310207],[13.3022451,38.1310945],[13.3023489,38.1310954],[13.3023504,38.1310057],[13.3024248,38.1310064],[13.3024259,38.1309365],[13.3024431,38.1309367],[13.3024446,38.1308302],[13.3023266,38.130829],[13.3023254,38.1309089],[13.302306,38.1309087],[13.3023059,38.1309202],[13.3022069,38.1309194],[13.3022057,38.1309997],[13.3022207,38.1309998]]]}},{"type":"Feature","properties":{"Codice":"U_12","Gruppo":"Sede amministrativa/istituzionale","altezza":11.1,"osm_id":"way/279170727","name":null,"quota":130.0782914804448,"tetto":159.6541951124078},"geometry":{"type":"Polygon","coordinates":[[[13.2993021,38.1290057],[13.299338,38.1280779],[13.2992185,38.128075],[13.2991825,38.1290063],[13.2993021,38.1290057]]]}},{"type":"Feature","properties":{"Codice":"A_06","Gruppo":"Asilo","altezza":4.2,"osm_id":"rel/3712542","name":null,"quota":106.82543793253414,"tetto":127.83929826785234},"geometry":{"type":"Polygon","coordinates":[[[13.3117,38.1361579],[13.3117552,38.1360788],[13.311804,38.1361001],[13.3117998,38.1361063],[13.3119767,38.1361835],[13.3120301,38.1361071],[13.3119545,38.1360754],[13.311993,38.1360204],[13.3118844,38.1359731],[13.3118347,38.1359514],[13.3118234,38.1359678],[13.311731,38.1359275],[13.3116668,38.1360194],[13.3116465,38.1360106],[13.3115802,38.1361057],[13.3117,38.1361579]],[[13.3117926,38.1360197],[13.3118435,38.1360419],[13.3118172,38.1360798],[13.3117661,38.1360576],[13.3117926,38.1360197]]]}},{"type":"Feature","properties":{"Codice":"U_03","Gruppo":"Sede amministrativa/istituzionale","altezza":14,"osm_id":"way/280090459;way/280105411","name":null},"geometry":{"type":"MultiPolygon","coordinates":[[[[13.3165132,38.1586474],[13.3165022,38.1586651],[13.316608,38.1587088],[13.3168688,38.1583145],[13.3168071,38.158289],[13.3167645,38.1582702],[13.316752,38.1582871],[13.3167421,38.1582831],[13.3167388,38.1582881],[13.3165011,38.1586425],[13.3165132,38.1586474]]],[[[13.3165022,38.1586651],[13.3165132,38.1586474],[13.3165011,38.1586425],[13.3167388,38.1582881],[13.3167421,38.1582831],[13.3166855,38.1582605],[13.316435,38.1586372],[13.3165022,38.1586651]]]]}},{"type":"Feature","properties":{"Codice":"U_02","Gruppo":"Sede amministrativa/istituzionale","altezza":26.8,"osm_id":"way/280097939","name":"Polizia Municipale","quota":118.90749563133512,"tetto":174.40901034779407},"geometry":{"type":"Polygon","coordinates":[[[13.3145408,38.161302],[13.3147247,38.161028],[13.3145834,38.160969],[13.3143983,38.1612424],[13.3145408,38.161302]]]}},{"type":"Feature","properties":{"Codice":"S_02","Gruppo":"Scuola","altezza":12,"osm_id":"way/280091313","name":null,"quota":95.50628944043844,"tetto":134.68050759086984},"geometry":{"type":"Polygon","coordinates":[[[13.3276054,38.1609138],[13.3277077,38.1608923],[13.3277519,38.160882],[13.3277662,38.1609201],[13.327857,38.1608988],[13.3278437,38.1608638],[13.3279896,38.1608296],[13.3279555,38.160739],[13.3279049,38.1607508],[13.3276217,38.1608172],[13.3275734,38.1608285],[13.3276054,38.1609138]]]}},{"type":"Feature","properties":{"Codice":"U_05","Gruppo":"Sede amministrativa/istituzionale","altezza":23.2,"osm_id":"way/242246431","name":null,"quota":90.92741660197161,"tetto":134.4779078264391},"geometry":{"type":"Polygon","coordinates":[[[13.3249244,38.1537623],[13.3250027,38.1537825],[13.3250299,38.1537907],[13.3250749,38.1537829],[13.3251368,38.1537515],[13.3252262,38.1536194],[13.3250452,38.1535543],[13.3249244,38.1537623]]]}},{"type":"Feature","properties":{"Codice":"S_04","Gruppo":"Scuola","altezza":39.5,"osm_id":"way/280092097;way/280091116;way/280105506;way/280091704;way/280108926;way/280109309","name":null},"geometry":{"type":"MultiPolygon","coordinates":[[[[13.3286342,38.1484627],[13.3286269,38.1484699],[13.3286489,38.1484837],[13.3286597,38.1484729],[13.328744,38.1485256],[13.3288506,38.148419],[13.3288184,38.148399],[13.3288273,38.14839],[13.3288102,38.1483794],[13.328804,38.1483856],[13.3287096,38.1483268],[13.3285969,38.1484394],[13.3286342,38.1484627]]],[[[13.328804,38.1483856],[13.3288102,38.1483794],[13.3288273,38.14839],[13.3288184,38.148399],[13.3288506,38.148419],[13.3288783,38.1483913],[13.3288394,38.1483672],[13.3287976,38.148341],[13.3288006,38.1483381],[13.3287381,38.1482991],[13.3287096,38.1483268],[13.328804,38.1483856]]],[[[13.3285661,38.1484695],[13.3285969,38.1484394],[13.3287096,38.1483268],[13.3287381,38.1482991],[13.3287265,38.148294],[13.3286402,38.1483802],[13.3286237,38.1483967],[13.3285559,38.1484644],[13.3285661,38.1484695]]],[[[13.3285729,38.148473],[13.3286372,38.1485132],[13.328643,38.1485073],[13.3287164,38.1485531],[13.3287389,38.1485308],[13.328744,38.1485256],[13.3286597,38.1484729],[13.3286489,38.1484837],[13.3286269,38.1484699],[13.3286342,38.1484627],[13.3285969,38.1484394],[13.3285661,38.1484695],[13.3285729,38.148473]]],[[[13.3288073,38.1485718],[13.3287872,38.1485927],[13.3289123,38.1486678],[13.3289438,38.1486867],[13.3290883,38.1485363],[13.3291405,38.1484821],[13.3288787,38.1483264],[13.3288394,38.1483672],[13.3288783,38.1483913],[13.3288506,38.148419],[13.328744,38.1485256],[13.3287389,38.1485308],[13.3288073,38.1485718]]],[[[13.3288868,38.1484856],[13.3289773,38.1485399],[13.3289308,38.1485883],[13.3288404,38.148534],[13.3288868,38.1484856]]]]}},{"type":"Feature","properties":{"Codice":"S_03","Gruppo":"Scuola","altezza":8.4,"osm_id":"way/280093782","name":null,"quota":85.14508934307192,"tetto":110.5947386456821},"geometry":{"type":"Polygon","coordinates":[[[13.3318079,38.1513987],[13.3318206,38.1514081],[13.3318371,38.1514202],[13.3318497,38.1514296],[13.3321613,38.1516596],[13.3321315,38.1516848],[13.3321702,38.1517132],[13.332271,38.151628],[13.3324991,38.1517963],[13.3325739,38.1517329],[13.3323273,38.1515508],[13.3323062,38.1515354],[13.332287,38.1515515],[13.3322357,38.1515136],[13.3321815,38.1515594],[13.3321576,38.1515418],[13.3318482,38.1513134],[13.3317755,38.1513748],[13.3318079,38.1513987]]]}},{"type":"Feature","properties":{"Codice":"A_21","Gruppo":"Asilo","altezza":5.5,"osm_id":"way/280104156;way/280090209;way/280096536","name":null},"geometry":{"type":"MultiPolygon","coordinates":[[[[13.3335761,38.1551316],[13.3336921,38.155185],[13.3337546,38.1551003],[13.3337569,38.1550946],[13.3337216,38.1550785],[13.3336296,38.1550358],[13.3335627,38.1551254],[13.3335761,38.1551316]]],[[[13.3335414,38.1552477],[13.3335459,38.1552417],[13.3336204,38.1552765],[13.3336112,38.1552888],[13.3336508,38.1553072],[13.3337924,38.1551181],[13.3337546,38.1551003],[13.3336921,38.155185],[13.3335761,38.1551316],[13.3335028,38.1552297],[13.3335414,38.1552477]]],[[[13.3337216,38.1550785],[13.3337542,38.1550351],[13.3336624,38.1549922],[13.3336296,38.1550358],[13.3337216,38.1550785]]]]}},{"type":"Feature","properties":{"Codice":"A_04","Gruppo":"Asilo","altezza":4.5,"osm_id":"way/280106060;way/280100536;way/280101358;way/280100127;way/280100262","name":null},"geometry":{"type":"MultiPolygon","coordinates":[[[[13.3267077,38.1513692],[13.3267529,38.1513867],[13.326775,38.1513504],[13.3267974,38.1513137],[13.3267554,38.1512968],[13.3267058,38.151277],[13.3266826,38.1513125],[13.3266581,38.1513499],[13.3267077,38.1513692]]],[[[13.3267974,38.1513137],[13.3268208,38.151323],[13.3268734,38.1512431],[13.3268084,38.1512164],[13.3267554,38.1512968],[13.3267974,38.1513137]]],[[[13.3268475,38.1514591],[13.3268885,38.1513971],[13.326775,38.1513504],[13.3267529,38.1513867],[13.3267366,38.1514134],[13.3268475,38.1514591]]],[[[13.3266826,38.1513125],[13.3267058,38.151277],[13.3267222,38.1512522],[13.3265838,38.1511953],[13.326544,38.1512556],[13.3266826,38.1513125]]],[[[13.3266287,38.1514891],[13.3267077,38.1513692],[13.3266581,38.1513499],[13.326638,38.1513421],[13.3265598,38.1514608],[13.3266287,38.1514891]]]]}},{"type":"Feature","properties":{"Codice":"U_07","Gruppo":"Sede amministrativa/istituzionale","altezza":30.9,"osm_id":"way/980986076","name":"Polo Tecnico del Comune di Palermo","quota":80.07218022509385,"tetto":162.04151734231934},"geometry":{"type":"Polygon","coordinates":[[[13.3343032,38.1502868],[13.3352244,38.15074],[13.3355179,38.1503777],[13.3345688,38.1499862],[13.334423,38.1501522],[13.3343032,38.1502868]]]}},{"type":"Feature","properties":{"Codice":"U_06","Gruppo":"Sede amministrativa/istituzionale","altezza":5,"osm_id":"rel/1694543","name":null,"quota":79.42298678256391,"tetto":120.50934506754612},"geometry":{"type":"Polygon","coordinates":[[[13.3411563,38.152992],[13.3411935,38.1529136],[13.3412212,38.1528723],[13.3415113,38.1524403],[13.3416949,38.152167],[13.3417545,38.1520784],[13.3417879,38.1520287],[13.3418483,38.1519621],[13.341903,38.1519252],[13.3419596,38.1518911],[13.3420332,38.1518593],[13.3421093,38.1518374],[13.3421801,38.1518243],[13.3422786,38.1518179],[13.3423562,38.1518194],[13.3424329,38.1518257],[13.3425251,38.1518403],[13.3426143,38.1518598],[13.3427052,38.1518868],[13.3428034,38.1519233],[13.3429237,38.1519809],[13.3430431,38.1520551],[13.3431365,38.1521259],[13.3432129,38.1521981],[13.3432682,38.1522708],[13.3433053,38.1523378],[13.3433258,38.1524279],[13.3433294,38.1525006],[13.3433175,38.1525699],[13.3433065,38.1526018],[13.3432953,38.152634],[13.3432603,38.1526997],[13.3426863,38.1535364],[13.3426293,38.1535929],[13.342534,38.1536632],[13.3424512,38.1537055],[13.3423598,38.1537319],[13.3422733,38.1537501],[13.3421863,38.1537566],[13.3420688,38.1537498],[13.3419841,38.153738],[13.3418601,38.1537123],[13.3417736,38.1536881],[13.3416901,38.1536599],[13.3416088,38.1536249],[13.3415286,38.1535853],[13.3414594,38.1535419],[13.3413609,38.1534754],[13.3412996,38.1534224],[13.3412553,38.1533819],[13.3412188,38.1533352],[13.3411732,38.1532656],[13.3411542,38.153205],[13.3411451,38.1531514],[13.3411415,38.1531056],[13.3411455,38.1530543],[13.3411563,38.152992]],[[13.3415723,38.1530318],[13.3421465,38.152186],[13.3421777,38.1521649],[13.3422006,38.1521511],[13.3422195,38.152143],[13.3422432,38.1521361],[13.3422603,38.152133],[13.3423064,38.15213],[13.3423455,38.1521307],[13.3423866,38.1521341],[13.3424455,38.1521435],[13.3425025,38.1521559],[13.3425605,38.1521731],[13.3426242,38.1521968],[13.3427047,38.1522353],[13.3427582,38.1522673],[13.3428079,38.1523003],[13.3428511,38.1523348],[13.3428927,38.1523742],[13.3429181,38.1524075],[13.3429254,38.1524207],[13.3429324,38.1524517],[13.3429335,38.1524741],[13.34293,38.1524945],[13.3429221,38.1525175],[13.3429052,38.1525491],[13.342358,38.1533468],[13.3423423,38.1533624],[13.3423199,38.153383],[13.3422956,38.1533968],[13.3422821,38.1534037],[13.3422516,38.1534125],[13.3422161,38.15342],[13.3421977,38.1534213],[13.3421358,38.1534177],[13.3420884,38.1534111],[13.3419974,38.1533923],[13.3419395,38.1533761],[13.3418859,38.1533579],[13.3418325,38.153335],[13.3417825,38.1533103],[13.3417373,38.153282],[13.3416978,38.1532575],[13.3416636,38.1532322],[13.3416231,38.1531972],[13.341604,38.1531797],[13.3415927,38.1531653],[13.34158,38.1531484],[13.3415742,38.1531337],[13.3415671,38.1531122],[13.3415647,38.1530901],[13.3415644,38.1530709],[13.3415671,38.1530514],[13.3415723,38.1530318]]]}},{"type":"Feature","properties":{"Codice":"A_01","Gruppo":"Asilo","altezza":4.3,"osm_id":"way/285431044","name":null,"quota":59.06434472354917,"tetto":79.86958046032073},"geometry":{"type":"Polygon","coordinates":[[[13.2809729,38.1982099],[13.280966,38.1982168],[13.2810419,38.1982638],[13.2810672,38.1982383],[13.2810807,38.1982466],[13.281143,38.1982853],[13.2811181,38.1983104],[13.2811699,38.1983425],[13.2811984,38.1983138],[13.2812138,38.1983233],[13.2812429,38.198294],[13.281261,38.1983052],[13.2813061,38.1982598],[13.2813004,38.1982563],[13.2813267,38.19823],[13.2813052,38.1982166],[13.2813122,38.1982094],[13.2812576,38.1981755],[13.281237,38.1981963],[13.2811666,38.1981527],[13.2811617,38.1981575],[13.2811078,38.1981241],[13.2810979,38.1981338],[13.2810648,38.1981132],[13.281025,38.1981532],[13.2810417,38.1981636],[13.2810352,38.19817],[13.2809961,38.1981457],[13.2809477,38.1981943],[13.2809729,38.1982099]]]}},{"type":"Feature","properties":{"Codice":"A_08","Gruppo":"Asilo","altezza":3.7,"osm_id":"way/285430632","name":null,"quota":85.44330674815554,"tetto":113.39326161304946},"geometry":{"type":"Polygon","coordinates":[[[13.3269722,38.1712634],[13.3270349,38.1712786],[13.3270275,38.1712977],[13.3270589,38.1713054],[13.3272294,38.1713467],[13.327221,38.1713682],[13.3272775,38.1713818],[13.3272815,38.1713714],[13.3273558,38.1713895],[13.327371,38.1713502],[13.3273779,38.1713518],[13.3273959,38.1713058],[13.327364,38.1712982],[13.3273694,38.1712846],[13.3273562,38.1712814],[13.3272516,38.1712559],[13.3272469,38.1712695],[13.3272115,38.171261],[13.3272164,38.171248],[13.3271731,38.1712375],[13.3271786,38.1712234],[13.3269953,38.1711789],[13.3269632,38.1712613],[13.3269722,38.1712634]]]}},{"type":"Feature","properties":{"Codice":"A_03","Gruppo":"Asilo","altezza":6.2,"osm_id":"way/285430469;way/285450134;way/285439946;way/285447168","name":null},"geometry":{"type":"MultiPolygon","coordinates":[[[[13.322348,38.1699764],[13.3223564,38.1699843],[13.3223767,38.1699728],[13.3224098,38.1700036],[13.3223969,38.1700123],[13.3224415,38.1700538],[13.3224611,38.1700721],[13.3224822,38.1700916],[13.3224913,38.1701],[13.3225043,38.170092],[13.3225686,38.1701517],[13.3226538,38.1700946],[13.3225893,38.1700347],[13.3225769,38.170043],[13.3225162,38.1699866],[13.322499,38.1699706],[13.3224471,38.1699224],[13.3224372,38.1699289],[13.3223824,38.169878],[13.3223746,38.1698708],[13.3223339,38.1698981],[13.3222932,38.1699255],[13.322348,38.1699764]]],[[[13.3225229,38.1699546],[13.322499,38.1699706],[13.3225162,38.1699866],[13.3225899,38.1699373],[13.3226266,38.1699127],[13.3225932,38.1698818],[13.3225715,38.1698964],[13.3225575,38.1698834],[13.3224928,38.1699267],[13.3225229,38.1699546]]],[[[13.3224372,38.1699289],[13.3224471,38.1699224],[13.3224621,38.1699121],[13.3224074,38.1698612],[13.3223824,38.169878],[13.3224372,38.1699289]]],[[[13.3223339,38.1698981],[13.3223746,38.1698708],[13.3224307,38.1698333],[13.3224088,38.169813],[13.3224576,38.1697802],[13.3224434,38.1697672],[13.322298,38.1698647],[13.3223339,38.1698981]]]]}},{"type":"Feature","properties":{"Codice":"U_01","Gruppo":"Sede amministrativa/istituzionale","altezza":28.6,"osm_id":"way/285431005;way/285429822","name":null},"geometry":{"type":"MultiPolygon","coordinates":[[[[13.3186246,38.171365],[13.3190196,38.1710527],[13.3190952,38.1711122],[13.3190702,38.1711322],[13.3191697,38.171208],[13.3191817,38.1711986],[13.3192688,38.1711298],[13.3192824,38.171119],[13.3192734,38.1711119],[13.3191842,38.1710415],[13.3191338,38.1710815],[13.3190561,38.1710201],[13.3191313,38.1709607],[13.3191494,38.1709464],[13.3190547,38.1708703],[13.3189891,38.1709205],[13.3189999,38.1709293],[13.3189809,38.1709438],[13.3189738,38.170938],[13.3187993,38.1710716],[13.3188086,38.1710791],[13.3187912,38.1710923],[13.3187844,38.1710868],[13.3186101,38.1712202],[13.3186157,38.1712248],[13.3185934,38.1712418],[13.3185902,38.1712392],[13.31853,38.1712853],[13.3186246,38.171365]]],[[[13.3186002,38.1713843],[13.3186246,38.171365],[13.31853,38.1712853],[13.3185902,38.1712392],[13.3185934,38.1712418],[13.3186157,38.1712248],[13.3186101,38.1712202],[13.3187844,38.1710868],[13.3187912,38.1710923],[13.3188086,38.1710791],[13.3187993,38.1710716],[13.3189738,38.170938],[13.3189809,38.1709438],[13.3189999,38.1709293],[13.3189891,38.1709205],[13.3190547,38.1708703],[13.3190501,38.1708666],[13.3184976,38.1713035],[13.3186002,38.1713843]]]]}},{"type":"Feature","properties":{"Codice":"A_02","Gruppo":"Asilo","altezza":21.4,"osm_id":"way/285429014;way/285446842","name":null},"geometry":{"type":"MultiPolygon","coordinates":[[[[13.3108027,38.1806474],[13.311032,38.180562],[13.3112514,38.1804802],[13.3111962,38.1803878],[13.3111072,38.180421],[13.3111313,38.1804606],[13.3110787,38.180479],[13.3110585,38.180443],[13.3110214,38.1804568],[13.3108864,38.1805071],[13.3109095,38.1805402],[13.310852,38.1805605],[13.3108345,38.1805294],[13.3107799,38.1805498],[13.3107452,38.1805627],[13.3108027,38.1806474]]],[[[13.3110787,38.180479],[13.3111313,38.1804606],[13.3111072,38.180421],[13.3110997,38.1804084],[13.3110698,38.1804194],[13.3110793,38.1804353],[13.3110585,38.180443],[13.3110787,38.180479]]]]}},{"type":"Feature","properties":{"Codice":"U_08","Gruppo":"Sede amministrativa/istituzionale","altezza":11.5,"osm_id":"way/1291725150;way/1291725151","name":null},"geometry":{"type":"MultiPolygon","coordinates":[[[[13.354344,38.1465461],[13.3544802,38.1463926],[13.3543745,38.1463335],[13.3542363,38.1464933],[13.354344,38.1465461]]],[[[13.3545758,38.1462583],[13.354466,38.1462072],[13.3543745,38.1463335],[13.3544863,38.1463798],[13.3545758,38.1462583]]]]}},{"type":"Feature","properties":{"Codice":"U_10","Gruppo":"Sede amministrativa/istituzionale","altezza":15,"osm_id":"rel/3706611","name":null,"quota":47.47105453062759,"tetto":79.0118096742701},"geometry":{"type":"Polygon","coordinates":[[[13.3674457,38.1387675],[13.3674479,38.1387606],[13.3674771,38.1387665],[13.3674838,38.1387474],[13.3675007,38.1387507],[13.3675097,38.1387224],[13.3676339,38.1387469],[13.3676616,38.138662],[13.3674753,38.138624],[13.3674421,38.1386173],[13.3673578,38.1386002],[13.3673121,38.1387403],[13.3674457,38.1387675]],[[13.3674763,38.1386305],[13.3675353,38.1386425],[13.3675186,38.1386935],[13.3674596,38.1386814],[13.3674763,38.1386305]]]}},{"type":"Feature","properties":{"Codice":"S_07","Gruppo":"Scuola","altezza":6,"osm_id":"way/278478969","name":null,"quota":54.29492178570966,"tetto":84.15099195107908},"geometry":{"type":"Polygon","coordinates":[[[13.3661073,38.1441062],[13.3661553,38.143634],[13.3659479,38.143621],[13.3659363,38.1437333],[13.3660376,38.1437397],[13.3660203,38.1439094],[13.3659547,38.1439053],[13.3659465,38.143986],[13.3653998,38.1439514],[13.3653882,38.144065],[13.3654977,38.144072],[13.3655007,38.1440421],[13.3659996,38.1440737],[13.365997,38.1440993],[13.3661073,38.1441062]]]}},{"type":"Feature","properties":{"Codice":"U_04","Gruppo":"Sede amministrativa/istituzionale","altezza":0,"occupancy":"UNK","quota":50.84720537735392,"tetto":81.9895655052406,"osm_id":null,"name":null,"fonte":"pmtiles-fallback"},"geometry":{"type":"Polygon","coordinates":[[[13.370358645915985,38.16199156461067],[13.370359987020493,38.16194938595217],[13.370327800512314,38.16194938595217],[13.370326459407806,38.16199156461067],[13.370358645915985,38.16199156461067]]]}},{"type":"Feature","properties":{"Codice":"S_05","Gruppo":"Scuola","altezza":6,"osm_id":"way/1320082692;way/1251256376","name":null},"geometry":{"type":"MultiPolygon","coordinates":[[[[13.3709671,38.1508534],[13.3709905,38.1503637],[13.3710391,38.150365],[13.3710412,38.1503203],[13.3708937,38.1503159],[13.3708681,38.1508499],[13.3708329,38.1508489],[13.3708294,38.1509207],[13.3710001,38.1509258],[13.3710035,38.1508544],[13.3709671,38.1508534]]],[[[13.3708294,38.1509207],[13.3708329,38.1508489],[13.3708681,38.1508499],[13.3708937,38.1503159],[13.3710412,38.1503203],[13.3710391,38.150365],[13.3709905,38.1503637],[13.3709671,38.1508534],[13.3710035,38.1508544],[13.3710001,38.1509258],[13.3708294,38.1509207]]]]}}]}