{"type":"FeatureCollection","features":[{"type":"Feature","properties":{"Codice":"AV_23","osm_id":"way/23481108","name":"Villa Giulia"},"geometry":{"type":"Polygon","coordinates":[[[13.373643,38.1138912],[13.3747345,38.1144018],[13.3748648,38.1144628],[13.3760462,38.1150231],[13.3760872,38.1150294],[13.3761191,38.1150196],[13.377569,38.1131005],[13.3763344,38.1125285],[13.3751519,38.1118919],[13.3743956,38.1129096],[13.373643,38.1138912]]]}},{"type":"Feature","properties":{"Codice":"AV_21","osm_id":"way/24891138","name":"Giardino Garibaldi"},"geometry":{"type":"Polygon","coordinates":[[[13.368197,38.1178736],[13.3689458,38.1170007],[13.3689947,38.1169925],[13.3696625,38.1174883],[13.3693599,38.1182862],[13.3693423,38.1183326],[13.368197,38.1178736]]]}},{"type":"Feature","properties":{"Codice":"AV_22","osm_id":"way/24705750","name":"Foro Italico"},"geometry":{"type":"Polygon","coordinates":[[[13.3730673,38.1182199],[13.3735,38.1177496],[13.3739752,38.117235],[13.3740124,38.1171547],[13.3739918,38.1170479],[13.3745836,38.1165894],[13.3746047,38.116574],[13.3746133,38.11652],[13.3763509,38.1153744],[13.3765957,38.1155539],[13.3767443,38.1153791],[13.3768599,38.1154509],[13.3772254,38.1155836],[13.3776274,38.1157587],[13.3775295,38.1158203],[13.377232,38.1160003],[13.3770524,38.1162027],[13.3767163,38.1165903],[13.3761199,38.1172035],[13.3745868,38.1187088],[13.3743483,38.1189064],[13.3742389,38.1190452],[13.3740769,38.1189831],[13.3741486,38.1188817],[13.3730673,38.1182199]]]}},{"type":"Feature","properties":{"Codice":"AV_19","osm_id":"way/24818257","name":"Villa Bonanno"},"geometry":{"type":"Polygon","coordinates":[[[13.3561966,38.1120063],[13.3560449,38.1119679],[13.3557891,38.1119292],[13.3555574,38.1119096],[13.3555276,38.1119042],[13.355478,38.1118952],[13.3553893,38.1118852],[13.3553325,38.1118767],[13.355245,38.1118576],[13.3551704,38.1118284],[13.3550782,38.1117773],[13.3549055,38.1116867],[13.3544425,38.1122545],[13.3541474,38.1126164],[13.3542033,38.1126377],[13.3544634,38.1127472],[13.3548585,38.1129108],[13.3554754,38.1131661],[13.3557676,38.1127222],[13.3558005,38.1126704],[13.3561216,38.1121805],[13.3561966,38.1120063]]]}},{"type":"Feature","properties":{"Codice":"AV_18","osm_id":"way/23481092","name":"Piazza Indipendenza"},"geometry":{"type":"Polygon","coordinates":[[[13.3500312,38.1108634],[13.3502321,38.1109467],[13.3505753,38.1110834],[13.3510608,38.1112887],[13.3512081,38.1110573],[13.3512401,38.1110226],[13.3514608,38.1108767],[13.3517186,38.1107063],[13.3519058,38.1105826],[13.3519454,38.110322],[13.3519573,38.1102434],[13.3519187,38.1100795],[13.3516597,38.1100596],[13.3512302,38.1100302],[13.3512141,38.1100295],[13.3511663,38.1099924],[13.3508748,38.1099779],[13.3508557,38.1099759],[13.3508381,38.109974],[13.3507711,38.1099725],[13.3507025,38.1099843],[13.3506703,38.1100025],[13.3506236,38.1100605],[13.3506652,38.1100847],[13.3506821,38.1101719],[13.3505563,38.1103391],[13.3503662,38.1105915],[13.3502327,38.1107689],[13.3500942,38.1108246],[13.3500647,38.1108176],[13.3500312,38.1108634]]]}},{"type":"Feature","properties":{"Codice":"AV_20","osm_id":"way/153055723","name":null},"geometry":{"type":"Polygon","coordinates":[[[13.3456689,38.097302],[13.3457547,38.0973738],[13.3458432,38.0974582],[13.3459585,38.097587],[13.3460256,38.0976714],[13.3461138,38.0978092],[13.346149,38.0978529],[13.3463904,38.0977157],[13.346551,38.0976277],[13.3466693,38.0975532],[13.34672,38.09752],[13.3465215,38.0973744],[13.3462453,38.0971675],[13.3460229,38.0970128],[13.3456689,38.097302]]]}},{"type":"Feature","properties":{"Codice":"AV_16","osm_id":"rel/7897700","name":"Giardino della Zisa"},"geometry":{"type":"Polygon","coordinates":[[[13.3416059,38.1173743],[13.3417004,38.1173752],[13.3419628,38.1173763],[13.3432395,38.117377],[13.3432884,38.117378],[13.3432947,38.1172665],[13.3438129,38.1172699],[13.3438178,38.116883],[13.3438185,38.1168587],[13.3438208,38.116679],[13.3438256,38.1162747],[13.343312,38.1162658],[13.3433145,38.1161193],[13.3432305,38.1161001],[13.343179,38.1160884],[13.3431716,38.1159272],[13.3428661,38.1159339],[13.3428084,38.1160159],[13.3415587,38.1162048],[13.3415674,38.1162081],[13.3415775,38.116249],[13.3415803,38.1162596],[13.3415552,38.1162698],[13.341572,38.1164759],[13.3415901,38.1169968],[13.3416054,38.1173487],[13.3416059,38.1173743]],[[13.3419207,38.116779],[13.3419211,38.1167381],[13.3419211,38.1167338],[13.3419684,38.1167342],[13.3419682,38.1167538],[13.3419681,38.11676],[13.3419679,38.1167793],[13.3419207,38.116779]],[[13.3420811,38.1167719],[13.3420814,38.1167604],[13.3420815,38.1167542],[13.3420814,38.1167431],[13.3423771,38.116745],[13.3423768,38.1167738],[13.3420811,38.1167719]],[[13.3423965,38.1167742],[13.3423968,38.1167451],[13.3427756,38.1167477],[13.3427753,38.1167768],[13.3423965,38.1167742]],[[13.3429401,38.1167918],[13.3429405,38.116768],[13.3429338,38.1167679],[13.3429339,38.1167596],[13.3429401,38.1167597],[13.3429404,38.1167335],[13.3430571,38.1167342],[13.3430571,38.1167607],[13.3430634,38.1167608],[13.3430633,38.1167698],[13.3430576,38.1167698],[13.3430572,38.1167929],[13.3429401,38.1167918]],[[13.3432067,38.1167807],[13.3432071,38.1167512],[13.3435657,38.1167542],[13.3435655,38.1167659],[13.3435655,38.1167718],[13.3435653,38.1167837],[13.3432067,38.1167807]],[[13.3436894,38.1167847],[13.3436899,38.1167548],[13.3436528,38.1167544],[13.3436526,38.116766],[13.3436526,38.116772],[13.3436523,38.1167843],[13.3436894,38.1167847]]]}},{"type":"Feature","properties":{"Codice":"AV_15","osm_id":"way/521773932","name":null},"geometry":{"type":"Polygon","coordinates":[[[13.3532564,38.1228925],[13.3543582,38.1233498],[13.3534983,38.1225119],[13.3532564,38.1228925]]]}},{"type":"Feature","properties":{"Codice":"AV_13","osm_id":"way/25094168","name":null},"geometry":{"type":"Polygon","coordinates":[[[13.3460767,38.1237669],[13.3463685,38.1231929],[13.3467891,38.123328],[13.3465144,38.1238952],[13.3460767,38.1237669]]]}},{"type":"Feature","properties":{"Codice":"AV_09","osm_id":"rel/17989540","name":"Villa Trabia"},"geometry":{"type":"Polygon","coordinates":[[[13.3485857,38.1300141],[13.3485605,38.1300056],[13.3486167,38.1299324],[13.3486955,38.1298407],[13.3487952,38.1297606],[13.3490463,38.1295761],[13.3491334,38.1295137],[13.3487659,38.1293631],[13.3470926,38.1287328],[13.346874,38.1286506],[13.3462906,38.1284308],[13.3462503,38.1285903],[13.3461705,38.1289237],[13.3459921,38.1293163],[13.3456469,38.1300985],[13.3453636,38.1306656],[13.3468302,38.131207],[13.3474615,38.1314354],[13.3475602,38.1312855],[13.3477046,38.1311117],[13.3478442,38.1309626],[13.3482494,38.1305297],[13.348291,38.1304843],[13.3483564,38.1303772],[13.3484068,38.1302891],[13.3485149,38.1300818],[13.3485432,38.1300922],[13.3486905,38.1301468],[13.3488117,38.1301901],[13.3486954,38.1303581],[13.3485498,38.1305508],[13.3484433,38.1306857],[13.3487797,38.1307804],[13.348445,38.131496],[13.3488741,38.131658],[13.3491316,38.1311112],[13.3492518,38.1311247],[13.3496466,38.1307466],[13.350153,38.1308546],[13.3503207,38.1308815],[13.3504879,38.1309097],[13.350531,38.1307665],[13.3505475,38.1307079],[13.3506121,38.1306806],[13.350565,38.1304563],[13.3504792,38.130301],[13.3503676,38.1301255],[13.3502388,38.1299702],[13.3499604,38.1298706],[13.3495714,38.1297479],[13.3494622,38.1298297],[13.3492575,38.1297279],[13.3491151,38.1298374],[13.3489622,38.1299782],[13.3489104,38.1300447],[13.3488604,38.1301152],[13.34874,38.1300714],[13.3485857,38.1300141]]]}},{"type":"Feature","properties":{"Codice":"AV_12","osm_id":"way/44773836","name":null},"geometry":{"type":"Polygon","coordinates":[[[13.3297011,38.1254803],[13.3296434,38.1249517],[13.3308925,38.1241344],[13.3309667,38.1241896],[13.3297712,38.1254609],[13.3297011,38.1254803]]]}},{"type":"Feature","properties":{"Codice":"AV_11","osm_id":"way/24713806","name":"Parco Piersanti Mattarella"},"geometry":{"type":"Polygon","coordinates":[[[13.3523627,38.1341721],[13.352331,38.1341987],[13.352293,38.1342145],[13.3522464,38.1342231],[13.3522012,38.1342179],[13.3513028,38.1339978],[13.3503102,38.1337478],[13.3504468,38.1335422],[13.350492,38.1335243],[13.351107,38.1326124],[13.3507519,38.132435],[13.350927,38.1321649],[13.3513133,38.1315627],[13.3517057,38.1309663],[13.3517838,38.1308475],[13.3523991,38.1310649],[13.3524398,38.1310117],[13.3526992,38.1311079],[13.3527215,38.1310446],[13.3528554,38.1310853],[13.3528779,38.1310922],[13.3526857,38.1314007],[13.3524647,38.1316293],[13.3522116,38.1322118],[13.3530204,38.1325049],[13.3528094,38.1328724],[13.3531094,38.1330094],[13.3527976,38.1334948],[13.3523759,38.1341575],[13.3523627,38.1341721]]]}},{"type":"Feature","properties":{"Codice":"AV_10","osm_id":"way/194086653","name":"Villa Garibaldi"},"geometry":{"type":"Polygon","coordinates":[[[13.3502949,38.1324278],[13.350434,38.1324741],[13.3508859,38.1317613],[13.3511975,38.1312656],[13.3514815,38.1308212],[13.3510447,38.1306445],[13.3509311,38.130761],[13.350836,38.1308689],[13.3507218,38.1310263],[13.3506665,38.1311226],[13.3506299,38.1311984],[13.3506036,38.131295],[13.350486,38.1317473],[13.3504491,38.1318921],[13.3502949,38.1324278]]]}},{"type":"Feature","properties":{"Codice":"AV_04","osm_id":"way/547699096","name":"Giardino Rosa Balistreri"},"geometry":{"type":"Polygon","coordinates":[[[13.3388732,38.1433376],[13.339414,38.1437033],[13.3399523,38.142896],[13.3392982,38.142671],[13.3388732,38.1433376]]]}},{"type":"Feature","properties":{"Codice":"AV_14","osm_id":"way/294879562","name":"Villetta di Piazza Florio"},"geometry":{"type":"Polygon","coordinates":[[[13.3597888,38.124876],[13.3599396,38.1249357],[13.3600605,38.1249835],[13.3602266,38.1250493],[13.3603534,38.1250994],[13.3604774,38.1251485],[13.3605772,38.1249924],[13.3606823,38.124828],[13.3605591,38.124781],[13.3604316,38.1247299],[13.3602624,38.1246622],[13.3601468,38.1246159],[13.359993,38.1245547],[13.3597888,38.124876]]]}},{"type":"Feature","properties":{"Codice":"U_24","osm_id":"way/42346550","name":"Cimitero di Santa Maria di Gesù"},"geometry":{"type":"Polygon","coordinates":[[[13.3790706,38.0815355],[13.3789632,38.0816413],[13.3789806,38.081655],[13.3788563,38.081784],[13.3787662,38.0818616],[13.3787756,38.0818684],[13.378817,38.081897],[13.3788889,38.0819574],[13.3787948,38.082023],[13.3789525,38.082164],[13.3788786,38.0822185],[13.3789715,38.0822926],[13.3790492,38.0822439],[13.3790537,38.0822187],[13.379099,38.0822146],[13.3791141,38.0821786],[13.3791524,38.0821736],[13.37916,38.0821346],[13.3792508,38.0820726],[13.3795858,38.0824023],[13.3793554,38.0825551],[13.3792223,38.0824476],[13.3784382,38.083028],[13.3783289,38.0829453],[13.3782222,38.08282],[13.3779099,38.0824359],[13.3778201,38.0823367],[13.3776425,38.082119],[13.3776216,38.0820952],[13.3775919,38.0820613],[13.3767335,38.0810133],[13.3769897,38.0808348],[13.3774121,38.0805517],[13.3777477,38.0807871],[13.3778192,38.0807155],[13.3779714,38.080876],[13.3779525,38.0809221],[13.3784413,38.0812778],[13.3784661,38.0812955],[13.3785619,38.081204],[13.3790706,38.0815355]]]}},{"type":"Feature","properties":{"Codice":"AV_07","osm_id":"way/583804595","name":"Parco Viale Michelangelo"},"geometry":{"type":"Polygon","coordinates":[[[13.306171,38.132337],[13.3062017,38.1320261],[13.3062294,38.1319955],[13.3062571,38.1319893],[13.3062945,38.1319847],[13.3064177,38.1320364],[13.3064446,38.1320481],[13.3065554,38.1320964],[13.3079619,38.1326903],[13.3079471,38.1327568],[13.3079227,38.1328369],[13.3079155,38.1328682],[13.3078901,38.1328939],[13.3078683,38.1329253],[13.3078466,38.1329509],[13.3078248,38.1329909],[13.3077959,38.1330307],[13.3074317,38.1328771],[13.3063191,38.1323948],[13.306171,38.132337]]]}},{"type":"Feature","properties":{"Codice":"AV_03","osm_id":"way/24893782","name":null},"geometry":{"type":"Polygon","coordinates":[[[13.3318808,38.163994],[13.3317925,38.1638886],[13.331705,38.1637604],[13.3316422,38.1636494],[13.3316044,38.1635421],[13.3315838,38.1634392],[13.3315873,38.1633329],[13.3316002,38.1632242],[13.3316174,38.1631365],[13.3316629,38.1630283],[13.3317092,38.1629354],[13.3317761,38.1628335],[13.3318705,38.1627188],[13.3319392,38.1626378],[13.3320362,38.1625494],[13.332122,38.1624751],[13.332232,38.1624087],[13.332332,38.1623592],[13.3324595,38.1623033],[13.3325685,38.1622709],[13.3327051,38.1622473],[13.3328294,38.162237],[13.3329476,38.1622384],[13.3330649,38.1622474],[13.3331866,38.1622687],[13.333264,38.1622934],[13.3332873,38.1623055],[13.3329808,38.1626978],[13.3329191,38.1627866],[13.3327455,38.163038],[13.3325973,38.1632547],[13.3324171,38.1635208],[13.3323369,38.1636386],[13.3322894,38.1637044],[13.3322504,38.1637515],[13.3321215,38.1638665],[13.3319873,38.1639446],[13.3318808,38.163994]]]}},{"type":"Feature","properties":{"Codice":"AV_01","osm_id":"way/855164718","name":null},"geometry":{"type":"Polygon","coordinates":[[[13.3130429,38.1788914],[13.3129574,38.178899],[13.312899,38.1786782],[13.3128233,38.1786634],[13.3126449,38.1786703],[13.312705,38.1789387],[13.3125228,38.1789654],[13.3125007,38.178879],[13.3122137,38.1789275],[13.3122271,38.1790087],[13.3120045,38.1789148],[13.3119911,38.1788084],[13.3121091,38.1787894],[13.3120823,38.1786882],[13.3117899,38.1787346],[13.3118127,38.1788284],[13.3115847,38.1787325],[13.3115686,38.178627],[13.3116639,38.1786123],[13.3116478,38.1785037],[13.3113594,38.178548],[13.3113769,38.1786418],[13.3111328,38.1785227],[13.3111408,38.1785132],[13.3111905,38.1785374],[13.3113796,38.1783909],[13.3112401,38.1783234],[13.3112723,38.1783087],[13.3117443,38.1780936],[13.3126616,38.1785079],[13.3129849,38.1786513],[13.3130429,38.1788914]]]}},{"type":"Feature","properties":{"Codice":"U_04","osm_id":"way/25453095","name":"Cimitero di Santa Maria dei Rotoli"},"geometry":{"type":"Polygon","coordinates":[[[13.3695506,38.1639542],[13.3696288,38.1637679],[13.3696653,38.1637792],[13.3714484,38.159899],[13.3715714,38.1596314],[13.3713085,38.1591803],[13.3709706,38.1586005],[13.3707112,38.1569101],[13.3691732,38.1569371],[13.3690578,38.1577557],[13.3686403,38.1576616],[13.3684328,38.1583609],[13.3682074,38.1585933],[13.3680314,38.1587199],[13.3670582,38.1593609],[13.367003,38.1594603],[13.3669449,38.1595425],[13.3668608,38.159659],[13.3667842,38.159712],[13.3667389,38.1597816],[13.3666786,38.1598558],[13.3665574,38.1599495],[13.366387,38.1600733],[13.3662467,38.1601855],[13.3660852,38.160351],[13.3659575,38.160498],[13.3658341,38.1608078],[13.3657631,38.1609009],[13.3657473,38.1610127],[13.3656817,38.161129],[13.3655589,38.1623983],[13.366321,38.162571],[13.3667225,38.1626619],[13.3681739,38.1632733],[13.3681599,38.1632993],[13.3681492,38.1633218],[13.3680362,38.1635315],[13.3681296,38.1635626],[13.3695506,38.1639542]]]}},{"type":"Feature","properties":{"Codice":"AV_06","osm_id":"way/957199683","name":null},"geometry":{"type":"Polygon","coordinates":[[[13.2932131,38.1293288],[13.294965,38.129338],[13.2950466,38.1292918],[13.2952481,38.1292979],[13.2952506,38.1292093],[13.2953808,38.1292077],[13.2953781,38.1293002],[13.2955289,38.1293982],[13.2968695,38.1294484],[13.2968995,38.1291108],[13.2967378,38.1290834],[13.296561,38.1290436],[13.2963228,38.1289897],[13.2943629,38.128349],[13.2932503,38.1284252],[13.2930998,38.1285256],[13.2932131,38.1293288]]]}}]}